{
  "type": "FeatureCollection",
  "features": [
    {
      "type": "Feature",
      "properties": {
        "norad_id": 38833,
        "name": "GPS BIIF-3  (PRN 24)",
        "group": "gps-ops",
        "lat": -52.3905902941479,
        "lon": 77.99080916721314,
        "alt_km": 20562.187133643998,
        "timestamp": "2025-12-02T06:27:53.272761+00:00",
        "meta_object_name": "GPS BIIF-3  (PRN 24)",
        "meta_object_id": "2012-053A",
        "meta_epoch": "2025-11-30T21:15:05.262912",
        "meta_mean_motion": 2.00564831,
        "meta_eccentricity": 0.01754484,
        "meta_inclination": 53.5557,
        "meta_ra_of_asc_node": 151.7243,
        "meta_arg_of_pericenter": 63.8273,
        "meta_mean_anomaly": 298.0063,
        "meta_ephemeris_type": 0,
        "meta_classification_type": "U",
        "meta_norad_cat_id": 38833,
        "meta_element_set_no": 999,
        "meta_rev_at_epoch": 9546,
        "meta_bstar": 0,
        "meta_mean_motion_dot": 1.23e-06,
        "meta_mean_motion_ddot": 0,
        "tle_line1": "1 38833U 12053A   25334.88547758  .00000123  00000+0  00000+0 0  9999",
        "tle_line2": "2 38833  53.5557 151.7243 0175448  63.8273 298.0063  2.00564831 95469"
      },
      "geometry": {
        "type": "Point",
        "coordinates": [
          77.99080916721314,
          -52.3905902941479
        ]
      }
    },
    {
      "type": "Feature",
      "properties": {
        "norad_id": 39166,
        "name": "GPS BIIF-4  (PRN 27)",
        "group": "gps-ops",
        "lat": 14.5480137624876,
        "lon": -72.42978420744679,
        "alt_km": 19865.92411692927,
        "timestamp": "2025-12-02T06:27:53.272771+00:00",
        "meta_object_name": "GPS BIIF-4  (PRN 27)",
        "meta_object_id": "2013-023A",
        "meta_epoch": "2025-12-01T05:56:59.212320",
        "meta_mean_motion": 2.00565063,
        "meta_eccentricity": 0.0137183,
        "meta_inclination": 54.6621,
        "meta_ra_of_asc_node": 277.0355,
        "meta_arg_of_pericenter": 48.4881,
        "meta_mean_anomaly": 312.6778,
        "meta_ephemeris_type": 0,
        "meta_classification_type": "U",
        "meta_norad_cat_id": 39166,
        "meta_element_set_no": 999,
        "meta_rev_at_epoch": 9191,
        "meta_bstar": 0,
        "meta_mean_motion_dot": -4e-07,
        "meta_mean_motion_ddot": 0,
        "tle_line1": "1 39166U 13023A   25335.24790755 -.00000040  00000+0  00000+0 0  9994",
        "tle_line2": "2 39166  54.6621 277.0355 0137183  48.4881 312.6778  2.00565063 91917"
      },
      "geometry": {
        "type": "Point",
        "coordinates": [
          -72.42978420744679,
          14.5480137624876
        ]
      }
    },
    {
      "type": "Feature",
      "properties": {
        "norad_id": 39533,
        "name": "GPS BIIF-5  (PRN 30)",
        "group": "gps-ops",
        "lat": 16.903861436104382,
        "lon": 170.2956336153014,
        "alt_km": 20368.6289497278,
        "timestamp": "2025-12-02T06:27:53.272782+00:00",
        "meta_object_name": "GPS BIIF-5  (PRN 30)",
        "meta_object_id": "2014-008A",
        "meta_epoch": "2025-11-29T05:57:39.103200",
        "meta_mean_motion": 2.00573621,
        "meta_eccentricity": 0.00788834,
        "meta_inclination": 53.629,
        "meta_ra_of_asc_node": 157.4751,
        "meta_arg_of_pericenter": 226.3092,
        "meta_mean_anomaly": 133.082,
        "meta_ephemeris_type": 0,
        "meta_classification_type": "U",
        "meta_norad_cat_id": 39533,
        "meta_element_set_no": 999,
        "meta_rev_at_epoch": 8567,
        "meta_bstar": 0,
        "meta_mean_motion_dot": 1.23e-06,
        "meta_mean_motion_ddot": 0,
        "tle_line1": "1 39533U 14008A   25333.24836925  .00000123  00000+0  00000+0 0  9995",
        "tle_line2": "2 39533  53.6290 157.4751 0078883 226.3092 133.0820  2.00573621 85677"
      },
      "geometry": {
        "type": "Point",
        "coordinates": [
          170.2956336153014,
          16.903861436104382
        ]
      }
    },
    {
      "type": "Feature",
      "properties": {
        "norad_id": 39741,
        "name": "GPS BIIF-6  (PRN 06)",
        "group": "gps-ops",
        "lat": 2.516120146125381,
        "lon": 157.52366883371994,
        "alt_km": 20262.355344982192,
        "timestamp": "2025-12-02T06:27:53.272793+00:00",
        "meta_object_name": "GPS BIIF-6  (PRN 06)",
        "meta_object_id": "2014-026A",
        "meta_epoch": "2025-12-01T00:37:56.787744",
        "meta_mean_motion": 2.00562013,
        "meta_eccentricity": 0.00388586,
        "meta_inclination": 56.588,
        "meta_ra_of_asc_node": 339.2323,
        "meta_arg_of_pericenter": 318.0747,
        "meta_mean_anomaly": 41.6609,
        "meta_ephemeris_type": 0,
        "meta_classification_type": "U",
        "meta_norad_cat_id": 39741,
        "meta_element_set_no": 999,
        "meta_rev_at_epoch": 8456,
        "meta_bstar": 0,
        "meta_mean_motion_dot": -5.2e-07,
        "meta_mean_motion_ddot": 0,
        "tle_line1": "1 39741U 14026A   25335.02635171 -.00000052  00000+0  00000+0 0  9996",
        "tle_line2": "2 39741  56.5880 339.2323 0038858 318.0747  41.6609  2.00562013 84563"
      },
      "geometry": {
        "type": "Point",
        "coordinates": [
          157.52366883371994,
          2.516120146125381
        ]
      }
    },
    {
      "type": "Feature",
      "properties": {
        "norad_id": 40105,
        "name": "GPS BIIF-7  (PRN 09)",
        "group": "gps-ops",
        "lat": 48.527724616412904,
        "lon": -135.47419887964003,
        "alt_km": 20088.593543238774,
        "timestamp": "2025-12-02T06:27:53.272804+00:00",
        "meta_object_name": "GPS BIIF-7  (PRN 09)",
        "meta_object_id": "2014-045A",
        "meta_epoch": "2025-12-01T02:44:59.047584",
        "meta_mean_motion": 2.00571745,
        "meta_eccentricity": 0.0032948,
        "meta_inclination": 55.2216,
        "meta_ra_of_asc_node": 96.3629,
        "meta_arg_of_pericenter": 119.5842,
        "meta_mean_anomaly": 240.7262,
        "meta_ephemeris_type": 0,
        "meta_classification_type": "U",
        "meta_norad_cat_id": 40105,
        "meta_element_set_no": 999,
        "meta_rev_at_epoch": 8210,
        "meta_bstar": 0,
        "meta_mean_motion_dot": 1.8e-07,
        "meta_mean_motion_ddot": 0,
        "tle_line1": "1 40105U 14045A   25335.11457231  .00000018  00000+0  00000+0 0  9993",
        "tle_line2": "2 40105  55.2216  96.3629 0032948 119.5842 240.7262  2.00571745 82109"
      },
      "geometry": {
        "type": "Point",
        "coordinates": [
          -135.47419887964003,
          48.527724616412904
        ]
      }
    },
    {
      "type": "Feature",
      "properties": {
        "norad_id": 40294,
        "name": "GPS BIIF-8  (PRN 03)",
        "group": "gps-ops",
        "lat": -19.601460821172868,
        "lon": -127.99149517133193,
        "alt_km": 20297.207753073915,
        "timestamp": "2025-12-02T06:27:53.272815+00:00",
        "meta_object_name": "GPS BIIF-8  (PRN 03)",
        "meta_object_id": "2014-068A",
        "meta_epoch": "2025-11-30T11:50:19.709088",
        "meta_mean_motion": 2.00564008,
        "meta_eccentricity": 0.0060843,
        "meta_inclination": 56.8481,
        "meta_ra_of_asc_node": 38.6199,
        "meta_arg_of_pericenter": 69.4521,
        "meta_mean_anomaly": 291.2475,
        "meta_ephemeris_type": 0,
        "meta_classification_type": "U",
        "meta_norad_cat_id": 40294,
        "meta_element_set_no": 999,
        "meta_rev_at_epoch": 8122,
        "meta_bstar": 0,
        "meta_mean_motion_dot": -6.3e-07,
        "meta_mean_motion_ddot": 0,
        "tle_line1": "1 40294U 14068A   25334.49328367 -.00000063  00000+0  00000+0 0  9995",
        "tle_line2": "2 40294  56.8481  38.6199 0060843  69.4521 291.2475  2.00564008 81225"
      },
      "geometry": {
        "type": "Point",
        "coordinates": [
          -127.99149517133193,
          -19.601460821172868
        ]
      }
    },
    {
      "type": "Feature",
      "properties": {
        "norad_id": 40534,
        "name": "GPS BIIF-9  (PRN 26)",
        "group": "gps-ops",
        "lat": 48.62968738177022,
        "lon": -25.793505285281775,
        "alt_km": 20086.968105439217,
        "timestamp": "2025-12-02T06:27:53.272827+00:00",
        "meta_object_name": "GPS BIIF-9  (PRN 26)",
        "meta_object_id": "2015-013A",
        "meta_epoch": "2025-12-01T02:55:38.238240",
        "meta_mean_motion": 2.00563184,
        "meta_eccentricity": 0.01065399,
        "meta_inclination": 53.1998,
        "meta_ra_of_asc_node": 212.3715,
        "meta_arg_of_pericenter": 38.192,
        "meta_mean_anomaly": 322.6465,
        "meta_ephemeris_type": 0,
        "meta_classification_type": "U",
        "meta_norad_cat_id": 40534,
        "meta_element_set_no": 999,
        "meta_rev_at_epoch": 7785,
        "meta_bstar": 0,
        "meta_mean_motion_dot": 6.6e-07,
        "meta_mean_motion_ddot": 0,
        "tle_line1": "1 40534U 15013A   25335.12197035  .00000066  00000+0  00000+0 0  9992",
        "tle_line2": "2 40534  53.1998 212.3715 0106539  38.1920 322.6465  2.00563184 77855"
      },
      "geometry": {
        "type": "Point",
        "coordinates": [
          -25.793505285281775,
          48.62968738177022
        ]
      }
    }
  ]
}